STARLINK-31153          
1 59044U 24038X   25227.94581975 -.00000579  00000+0 -11516-4 0  9995
2 59044  43.0017 105.3851 0001340 280.5132  79.5568 15.27561829 83222
STARLINK-31241          
1 59045U 24038Y   25228.36381799 -.00004528  00000+0 -15507-3 0  9996
2 59045  43.0019 103.3691 0001469 268.4408  91.6275 15.27592737 83455
STARLINK-31205          
1 59046U 24038Z   25228.35611760 -.00000816  00000+0 -20139-4 0  9994
2 59046  42.9996 103.3097 0000385 277.9866  82.0942 15.27570461 83395
STARLINK-31265          
1 59074U 24041A   25227.73692441  .00000680  00000+0  34231-4 0  9990
2 59074  42.9985  33.8200 0000497 218.8515 141.2301 15.27571859 82787
STARLINK-31276          
1 59075U 24041B   25227.50862900 -.00000209  00000+0  19233-5 0  9999
2 59075  43.0017  34.6925 0000687 254.2554 105.8222 15.27576367 82784
STARLINK-31259          
1 59076U 24041C   25228.42788333 -.00000528  00000+0 -96655-5 0  9997
2 59076  42.9990  29.5510 0000566 271.4554  88.6233 15.27579874 82891
STARLINK-31281          
1 59077U 24041D   25228.43173481 -.00018056  00000+0 -64685-3 0  9992
2 59077  43.0064  29.5826 0001783 287.1807  72.8849 15.27647011 82946
STARLINK-31274          
1 59078U 24041E   25227.74205111 -.00003698  00000+0 -12498-3 0  9993
2 59078  42.9950  33.8560 0000666 224.1163 135.9636 15.27567995 82786
STARLINK-31257          
1 59079U 24041F   25227.46379913  .00000578  00000+0  30535-4 0  9990
2 59079  43.0051  35.2123 0001741 277.0824  82.9830 15.27576001 82749
STARLINK-31299          
1 59080U 24041G   25228.25050372 -.00000792  00000+0 -19255-4 0  9991
2 59080  43.0018 293.0768 0001454 246.0637 114.0062 15.27573196 84010
STARLINK-31292          
1 59081U 24041H   25228.43561290  .00008765  00000+0  32818-3 0  9993
2 59081  43.0070  29.6091 0001944 263.4296  96.6335 15.27528552 82897
STARLINK-31286          
1 59082U 24041J   25227.85098149 -.00000494  00000+0 -84346-5 0  9995
2 59082  43.0045  32.9600 0001560 277.7034  82.3640 15.27575702 82873
STARLINK-31252          
1 59083U 24041K   25228.36793832  .00001572  00000+0  66633-4 0  9998
2 59083  43.0003 307.0662 0001432 271.7661  88.3026 15.27577587 83878
STARLINK-31261          
1 59084U 24041L   25227.74847749  .00000784  00000+0  38013-4 0  9992
2 59084  43.0001  33.9076 0001118 272.8293  87.2431 15.27573293 82827
STARLINK-31290          
1 59085U 24041M   25228.42725745  .00001305  00000+0  56953-4 0  9993
2 59085  42.9997  15.7001 0001167 274.2343  85.8376 15.27577555 83101
STARLINK-31279          
1 59086U 24041N   25228.15492835  .00003016  00000+0  11909-3 0  9997
2 59086  42.9990  31.7999 0001406 271.0782  88.9909 15.27572493 82894
STARLINK-31266          
1 59087U 24041P   25227.78943211  .00000919  00000+0  42902-4 0  9992
2 59087  43.0019  33.3532 0000969 179.9352 180.1500 15.27588293 82833
STARLINK-31313          
1 59088U 24041Q   25227.72662991  .00000645  00000+0  32971-4 0  9991
2 59088  43.0069  33.7440 0001654 275.2803  84.7860 15.27578617 82774
STARLINK-31307          
1 59089U 24041R   25228.18048956  .00000239  00000+0  18208-4 0  9998
2 59089  43.0051  31.1330 0001109 263.4430  96.6296 15.27567469 82909
STARLINK-31316          
1 59090U 24041S   25228.38007294 -.00000582  00000+0 -11610-4 0  9995
2 59090  43.0041 343.3635 0001198 255.1528 104.9191 15.27577672 83376
STARLINK-31310          
1 59092U 24041U   25228.42290095  .00000417  00000+0  24671-4 0  9991
2 59092  43.0033  30.3641 0001048 267.8438  92.2294 15.27576108 82884
STARLINK-31343          
1 59093U 24041V   25227.49463529  .00001541  00000+0  65499-4 0  9994
2 59093  42.9989  35.4406 0001255 274.7216  85.3492 15.27578572 82788
STARLINK-31295          
1 59095U 24041X   25227.73434214  .00000117  00000+0  13766-4 0  9990
2 59095  43.0038  33.7978 0001558 270.1881  89.8792 15.27572637 82773
STARLINK-31291          
1 59096U 24041Y   25227.73176860  .00000202  00000+0  16853-4 0  9996
2 59096  43.0026  33.7744 0001042 239.9952 120.0796 15.27576839 82772
STARLINK-31312          
1 59152U 24044A   25228.13405689  .00001111  00000+0  49903-4 0  9993
2 59152  43.0017 137.1928 0001075 279.8527  80.2203 15.27579384 82706
STARLINK-31308          
1 59153U 24044B   25228.15800719  .00000785  00000+0  38046-4 0  9991
2 59153  43.0019 140.9251 0001169 275.0422  85.0296 15.27576190 82714
STARLINK-31270          
1 59154U 24044C   25228.30462934  .00005635  00000+0  21415-3 0  9992
2 59154  43.0003 187.0145 0001208 283.8340  76.2378 15.27577254 82199
STARLINK-31341          
1 59155U 24044D   25227.96078032  .00001388  00000+0  62895-4 0  9995
2 59155  43.0011 191.3257 0001290 241.3776 118.6945 15.25899002 82078
STARLINK-31338          
1 59156U 24044E   25228.28582882 -.00005845  00000+0 -21414-3 0  9990
2 59156  42.9959 189.4646 0000071 273.7640  86.3202 15.25857538 81831
STARLINK-31334          
1 59157U 24044F   25228.28355218 -.00000374  00000+0 -44741-5 0  9994
2 59157  43.0022 189.4433 0001037 251.9610 108.1128 15.25901032 81948
STARLINK-31297          
1 59158U 24044G   25228.24309009  .00000984  00000+0  45290-4 0  9992
2 59158  42.9985 187.4106 0001097 265.8877  94.1849 15.27575664 82175
STARLINK-31182          
1 59159U 24044H   25228.27122696 -.00001590  00000+0 -48301-4 0  9993
2 59159  43.0039 186.7717 0001211 272.5188  87.5525 15.27563056 82186
STARLINK-31327          
1 59160U 24044J   25228.18027469  .00000074  00000+0  12200-4 0  9990
2 59160  42.9987 187.7967 0000782 267.8240  92.2522 15.27574531 82162
STARLINK-31256          
1 59161U 24044K   25228.27506906  .00000179  00000+0  16012-4 0  9990
2 59161  43.0006 186.8020 0001206 283.6069  76.4649 15.27574411 82187
STARLINK-31272          
1 59162U 24044L   25228.27892293 -.00000498  00000+0 -85630-5 0  9997
2 59162  43.0016 186.8260 0001741 269.1651  90.9001 15.27578370 82131
STARLINK-31278          
1 59163U 24044M   25228.28278234  .00004687  00000+0  17988-3 0  9993
2 59163  43.0021 186.8557 0001014 271.2157  88.8579 15.27554926 82132
STARLINK-31309          
1 59164U 24044N   25228.28662859  .00000492  00000+0  27392-4 0  9995
2 59164  43.0022 186.8812 0001250 259.8666 100.2044 15.27580005 82196
STARLINK-31325          
1 59165U 24044P   25228.28920084 -.00000408  00000+0 -53016-5 0  9995
2 59165  43.0017 186.9002 0001200 260.5208  99.5508 15.27571140 81935
STARLINK-31342          
1 59166U 24044Q   25228.29306441  .00006632  00000+0  25012-3 0  9998
2 59166  43.0024 186.9281 0001536 276.1367  83.9309 15.27606458 82189
STARLINK-31298          
1 59167U 24044R   25228.23152730 -.00000040  00000+0  80616-5 0  9994
2 59167  43.0013 187.3255 0001154 269.3472  90.7248 15.27574006 81912
STARLINK-31322          
1 59168U 24044S   25228.19183834 -.00000283  00000+0 -78221-6 0  9999
2 59168  43.0005 187.8805 0000872 268.5132  91.5620 15.27574010 82177
STARLINK-31329          
1 59169U 24044T   25228.18412769  .00000096  00000+0  13009-4 0  9992
2 59169  43.0003 187.8247 0000877 260.8033  99.2719 15.27576121 81950
STARLINK-31340          
1 59170U 24044U   25228.11863344  .00000495  00000+0  27510-4 0  9991
2 59170  43.0047 148.4293 0001533 268.5187  91.5489 15.27579160 82461
STARLINK-31344          
1 59171U 24044V   25228.18798523 -.00000576  00000+0 -11427-4 0  9997
2 59171  43.0009 187.8538 0000738 253.3739 106.7031 15.27572564 82160
STARLINK-31348          
1 59172U 24044W   25228.15928610  .00018694  00000+0  68686-3 0  9993
2 59172  43.0009 140.9327 0001402 271.5621  88.5070 15.27593036 82446
STARLINK-31289          
1 59173U 24044X   25228.30077172  .00000467  00000+0  26499-4 0  9995
2 59173  43.0005 186.9810 0001427 260.2026  99.8664 15.27575534 82190
STARLINK-31283          
1 59174U 24044Y   25228.41668981 -.00017832  00000+0 -64011-3 0  9999
2 59174  43.0017 139.3814 0001425 272.5631 107.1688 15.27575447 82750
STARLINK-31439          
1 59178U 24045A   25228.27232272 -.00002059  00000+0 -65313-4 0  9990
2 59178  42.9990 169.3296 0001032 278.7276  81.3459 15.27576787 81785
STARLINK-31410          
1 59179U 24045B   25228.13335326  .00001026  00000+0  46789-4 0  9997
2 59179  43.0000 173.4645 0001510 266.1827  93.8852 15.27579500 81723
STARLINK-31395          
1 59180U 24045C   25228.22701676 -.00000996  00000+0 -26698-4 0  9998
2 59180  43.0024 173.3134 0000527 268.7674  91.3117 15.27571260 81731
STARLINK-31486          
1 59181U 24045D   25228.21079300 -.00000295  00000+0 -11860-5 0  9998
2 59181  43.0019 169.7304 0000888 279.5570  80.5181 15.27579466 81770
STARLINK-31411          
1 59182U 24045E   25228.23844716 -.00001930  00000+0 -60652-4 0  9991
2 59182  43.0029 172.5355 0001058 234.7651 125.3102 15.27563412 81745
STARLINK-31382          
1 59184U 24045G   25228.23329227  .00004870  00000+0  18641-3 0  9992
2 59184  42.9992 172.4980 0001084 279.9746  80.0983 15.27572895 81741
STARLINK-31394          
1 59185U 24045H   25228.18478197 -.00002123  00000+0 -67669-4 0  9994
2 59185  43.0001 162.6201 0000696 260.8071  99.2702 15.27574977 81856
STARLINK-31403          
1 59186U 24045J   25228.09510813  .00000792  00000+0  38313-4 0  9999
2 59186  43.0006 152.2015 0001425 280.6040  79.4651 15.27569520 81869
STARLINK-31514          
1 59187U 24045K   25228.20127264  .00000786  00000+0  38025-4 0  9990
2 59187  43.0002 173.1129 0000984 258.7287 101.3454 15.27625552 81732
STARLINK-31478          
1 59188U 24045L   25228.19104574 -.00017994  00000+0 -64690-3 0  9995
2 59188  42.9978 173.0314 0001478 266.3278  93.7404 15.27530992 81734
STARLINK-31498          
1 59189U 24045M   25228.15135972  .00000593  00000+0  31091-4 0  9993
2 59189  43.0012 173.5949 0000946 263.7255  96.3489 15.27571438 81721
STARLINK-31563          
1 59190U 24045N   25228.17947417  .00001030  00000+0  46976-4 0  9997
2 59190  43.0010 172.9523 0001031 284.0100  76.0637 15.27557136 81733
